{
  "type": "FeatureCollection",
  "features": [
    {
      "type": "Feature",
      "properties": {
        "norad_id": 66947,
        "name": "STARLINK-36089",
        "group": "last-30-days",
        "lat": 31.238554775189982,
        "lon": 144.01156895411924,
        "alt_km": 372.6000670481917,
        "timestamp": "2025-12-24T14:43:27.722623+00:00",
        "meta_object_name": "STARLINK-36089",
        "meta_object_id": "2025-286Y",
        "meta_epoch": "2025-12-24T06:00:02.000160",
        "meta_mean_motion": 15.65333179,
        "meta_eccentricity": 0.00013729,
        "meta_inclination": 53.1595,
        "meta_ra_of_asc_node": 352.8389,
        "meta_arg_of_pericenter": 93.1524,
        "meta_mean_anomaly": 157.9052,
        "meta_ephemeris_type": 0,
        "meta_classification_type": "U",
        "meta_norad_cat_id": 66947,
        "meta_element_set_no": 999,
        "meta_rev_at_epoch": 384,
        "meta_bstar": -0.022884031,
        "meta_mean_motion_dot": -0.02036839,
        "meta_mean_motion_ddot": 0,
        "tle_line1": "1 66947U 25286Y   25358.25002315 -.02036839  00000+0 -22884-1 0  9993",
        "tle_line2": "2 66947  53.1595 352.8389 0001372  93.1524 157.9052 15.65333179  3844"
      },
      "geometry": {
        "type": "Point",
        "coordinates": [
          144.01156895411924,
          31.238554775189982
        ]
      }
    },
    {
      "type": "Feature",
      "properties": {
        "norad_id": 66948,
        "name": "STARLINK-36116",
        "group": "last-30-days",
        "lat": 32.59527133033109,
        "lon": 142.41874329188155,
        "alt_km": 372.4033544327649,
        "timestamp": "2025-12-24T14:43:27.722634+00:00",
        "meta_object_name": "STARLINK-36116",
        "meta_object_id": "2025-286Z",
        "meta_epoch": "2025-12-24T06:00:02.000160",
        "meta_mean_motion": 15.65327068,
        "meta_eccentricity": 0.00013441,
        "meta_inclination": 53.1594,
        "meta_ra_of_asc_node": 352.8431,
        "meta_arg_of_pericenter": 90.6084,
        "meta_mean_anomaly": 158.5397,
        "meta_ephemeris_type": 0,
        "meta_classification_type": "U",
        "meta_norad_cat_id": 66948,
        "meta_element_set_no": 999,
        "meta_rev_at_epoch": 384,
        "meta_bstar": -0.022843379,
        "meta_mean_motion_dot": -0.02033207,
        "meta_mean_motion_ddot": 0,
        "tle_line1": "1 66948U 25286Z   25358.25002315 -.02033207  00000+0 -22843-1 0  9995",
        "tle_line2": "2 66948  53.1594 352.8431 0001344  90.6084 158.5397 15.65327068  3843"
      },
      "geometry": {
        "type": "Point",
        "coordinates": [
          142.41874329188155,
          32.59527133033109
        ]
      }
    },
    {
      "type": "Feature",
      "properties": {
        "norad_id": 66949,
        "name": "STARLINK-36096",
        "group": "last-30-days",
        "lat": 29.86108172747386,
        "lon": 145.56110413708544,
        "alt_km": 372.988858781242,
        "timestamp": "2025-12-24T14:43:27.722644+00:00",
        "meta_object_name": "STARLINK-36096",
        "meta_object_id": "2025-286AA",
        "meta_epoch": "2025-12-24T06:00:02.000160",
        "meta_mean_motion": 15.65329252,
        "meta_eccentricity": 0.00012135,
        "meta_inclination": 53.1594,
        "meta_ra_of_asc_node": 352.8354,
        "meta_arg_of_pericenter": 87.8009,
        "meta_mean_anomaly": 165.1799,
        "meta_ephemeris_type": 0,
        "meta_classification_type": "U",
        "meta_norad_cat_id": 66949,
        "meta_element_set_no": 999,
        "meta_rev_at_epoch": 384,
        "meta_bstar": -0.022889518,
        "meta_mean_motion_dot": -0.02036857,
        "meta_mean_motion_ddot": 0,
        "tle_line1": "1 66949U 25286AA  25358.25002315 -.02036857  00000+0 -22890-1 0  9992",
        "tle_line2": "2 66949  53.1594 352.8354 0001213  87.8009 165.1799 15.65329252  3845"
      },
      "geometry": {
        "type": "Point",
        "coordinates": [
          145.56110413708544,
          29.86108172747386
        ]
      }
    },
    {
      "type": "Feature",
      "properties": {
        "norad_id": 66950,
        "name": "STARLINK-36111",
        "group": "last-30-days",
        "lat": 27.056438385203375,
        "lon": 148.53249368915596,
        "alt_km": 373.3762117527149,
        "timestamp": "2025-12-24T14:43:27.722656+00:00",
        "meta_object_name": "STARLINK-36111",
        "meta_object_id": "2025-286AB",
        "meta_epoch": "2025-12-24T06:00:02.000160",
        "meta_mean_motion": 15.65322697,
        "meta_eccentricity": 0.00013586,
        "meta_inclination": 53.1594,
        "meta_ra_of_asc_node": 352.8272,
        "meta_arg_of_pericenter": 91.5226,
        "meta_mean_anomaly": 165.2904,
        "meta_ephemeris_type": 0,
        "meta_classification_type": "U",
        "meta_norad_cat_id": 66950,
        "meta_element_set_no": 999,
        "meta_rev_at_epoch": 384,
        "meta_bstar": -0.022722332,
        "meta_mean_motion_dot": -0.02023462,
        "meta_mean_motion_ddot": 0,
        "tle_line1": "1 66950U 25286AB  25358.25002315 -.02023462  00000+0 -22722-1 0  9996",
        "tle_line2": "2 66950  53.1594 352.8272 0001358  91.5226 165.2904 15.65322697  3844"
      },
      "geometry": {
        "type": "Point",
        "coordinates": [
          148.53249368915596,
          27.056438385203375
        ]
      }
    },
    {
      "type": "Feature",
      "properties": {
        "norad_id": 66951,
        "name": "STARLINK-35999",
        "group": "last-30-days",
        "lat": 25.628980479551256,
        "lon": 149.96390182373247,
        "alt_km": 373.63991354798145,
        "timestamp": "2025-12-24T14:43:27.722668+00:00",
        "meta_object_name": "STARLINK-35999",
        "meta_object_id": "2025-286AC",
        "meta_epoch": "2025-12-24T06:00:02.000160",
        "meta_mean_motion": 15.65327588,
        "meta_eccentricity": 0.00013421,
        "meta_inclination": 53.1595,
        "meta_ra_of_asc_node": 352.8231,
        "meta_arg_of_pericenter": 93.3673,
        "meta_mean_anomaly": 165.3661,
        "meta_ephemeris_type": 0,
        "meta_classification_type": "U",
        "meta_norad_cat_id": 66951,
        "meta_element_set_no": 999,
        "meta_rev_at_epoch": 384,
        "meta_bstar": -0.022872516,
        "meta_mean_motion_dot": -0.02035514,
        "meta_mean_motion_ddot": 0,
        "tle_line1": "1 66951U 25286AC  25358.25002315 -.02035514  00000+0 -22873-1 0  9995",
        "tle_line2": "2 66951  53.1595 352.8231 0001342  93.3673 165.3661 15.65327588  3845"
      },
      "geometry": {
        "type": "Point",
        "coordinates": [
          149.96390182373247,
          25.628980479551256
        ]
      }
    },
    {
      "type": "Feature",
      "properties": {
        "norad_id": 66952,
        "name": "STARLINK-36122",
        "group": "last-30-days",
        "lat": 28.46717619311494,
        "lon": 147.0661424236303,
        "alt_km": 373.08804106172556,
        "timestamp": "2025-12-24T14:43:27.722678+00:00",
        "meta_object_name": "STARLINK-36122",
        "meta_object_id": "2025-286AD",
        "meta_epoch": "2025-12-24T06:00:02.000160",
        "meta_mean_motion": 15.65331954,
        "meta_eccentricity": 0.00013004,
        "meta_inclination": 53.1594,
        "meta_ra_of_asc_node": 352.8312,
        "meta_arg_of_pericenter": 98.2079,
        "meta_mean_anomaly": 156.6853,
        "meta_ephemeris_type": 0,
        "meta_classification_type": "U",
        "meta_norad_cat_id": 66952,
        "meta_element_set_no": 999,
        "meta_rev_at_epoch": 384,
        "meta_bstar": -0.02287649,
        "meta_mean_motion_dot": -0.02036105,
        "meta_mean_motion_ddot": 0,
        "tle_line1": "1 66952U 25286AD  25358.25002315 -.02036105  00000+0 -22876-1 0  9996",
        "tle_line2": "2 66952  53.1594 352.8312 0001300  98.2079 156.6853 15.65331954  3841"
      },
      "geometry": {
        "type": "Point",
        "coordinates": [
          147.0661424236303,
          28.46717619311494
        ]
      }
    },
    {
      "type": "Feature",
      "properties": {
        "norad_id": 66953,
        "name": "HULIANWANG DIGUI-114",
        "group": "last-30-days",
        "lat": -77.44675576695342,
        "lon": -34.13270462328259,
        "alt_km": 1023.1770951775998,
        "timestamp": "2025-12-24T14:43:27.722689+00:00",
        "meta_object_name": "HULIANWANG DIGUI-114",
        "meta_object_id": "2025-287A",
        "meta_epoch": "2025-12-20T09:09:14.655168",
        "meta_mean_motion": 13.66161866,
        "meta_eccentricity": 0.00096738,
        "meta_inclination": 86.496,
        "meta_ra_of_asc_node": 343.3747,
        "meta_arg_of_pericenter": 185.0352,
        "meta_mean_anomaly": 175.071,
        "meta_ephemeris_type": 0,
        "meta_classification_type": "U",
        "meta_norad_cat_id": 66953,
        "meta_element_set_no": 999,
        "meta_rev_at_epoch": 157,
        "meta_bstar": 3.033618e-06,
        "meta_mean_motion_dot": 1.9e-07,
        "meta_mean_motion_ddot": 0,
        "tle_line1": "1 66953U 25287A   25354.38141962  .00000019  00000+0  30336-5 0  9995",
        "tle_line2": "2 66953  86.4960 343.3747 0009673 185.0352 175.0710 13.66161866  1572"
      },
      "geometry": {
        "type": "Point",
        "coordinates": [
          -34.13270462328259,
          -77.44675576695342
        ]
      }
    }
  ]
}